
    {
      "objectName": "STARLINK-5588",
      "objectId": "2023-013AW",
      "noradId": 55375,
      "epochUtc": "2026-02-27T06:14:02.441472",
      "meanMotionRevPerDay": 15.02541529,
      "eccentricity": 0.00011663,
      "inclinationDeg": 43.0035,
      "raanDeg": 9.7233,
      "argPerigeeDeg": 272.9855,
      "meanAnomalyDeg": 87.0853,
      "bstar": 0.000036148772,
      "meanMotionDot": 0.00000285,
      "meanMotionDdot": 0,
      "elementSetNo": 999,
      "revAtEpoch": 16999
    },
    {
      "objectName": "STARLINK-5060",
      "objectId": "2023-014Y",
      "noradId": 55413,
      "epochUtc": "2026-02-27T06:04:30.653184",
      "meanMotionRevPerDay": 14.9833512,
      "eccentricity": 0.00027962,
      "inclinationDeg": 70.0016,
      "raanDeg": 110.5871,
      "argPerigeeDeg": 231.7618,
      "meanAnomalyDeg": 128.329,
      "bstar": 0.000064393396,
      "meanMotionDot": 0.00000676,
      "meanMotionDdot": 0,
      "elementSetNo": 999,
      "revAtEpoch": 17000
    },
    {
      "objectName": "STARLINK-5682",
      "objectId": "2023-015J",
      "noradId": 55457,
      "epochUtc": "2026-02-27T06:28:04.021536",
      "meanMotionRevPerDay": 15.0253834,
      "eccentricity": 0.00013524,
      "inclinationDeg": 43.0052,
      "raanDeg": 22.8612,
      "argPerigeeDeg": 269.6786,
      "meanAnomalyDeg": 90.3901,
      "bstar": 0.00010398091,
      "meanMotionDot": 0.00001201,
      "meanMotionDdot": 0,
      "elementSetNo": 999,
      "revAtEpoch": 16918
    },
    {
      "objectName": "STARLINK-5373",
      "objectId": "2023-015AT",
      "noradId": 55490,
      "epochUtc": "2026-02-27T05:55:43.490496",
      "meanMotionRevPerDay": 15.02541011,
      "eccentricity": 0.00010684,
      "inclinationDeg": 43.0037,
      "raanDeg": 35.6667,
      "argPerigeeDeg": 273.3852,
      "meanAnomalyDeg": 86.6868,
      "bstar": 0.000069162274,
      "meanMotionDot": 0.00000731,
      "meanMotionDdot": 0,
      "elementSetNo": 999,
      "revAtEpoch": 16903
    },
    {
      "objectName": "STARLINK-5697",
      "objectId": "2023-020W",
      "noradId": 55589,
      "epochUtc": "2026-02-27T06:31:36.118848",
      "meanMotionRevPerDay": 15.02536593,
      "eccentricity": 0.00010885,
      "inclinationDeg": 43.0034,
      "raanDeg": 61.1224,
      "argPerigeeDeg": 276.9861,
      "meanAnomalyDeg": 83.0857,
      "bstar": 0.0000335117,
      "meanMotionDot": 0.00000249,
      "meanMotionDdot": 0,
      "elementSetNo": 999,
      "revAtEpoch": 16735
    },
    {
      "objectName": "STARLINK-5698",
      "objectId": "2023-020BG",
      "noradId": 55623,
      "epochUtc": "2026-02-27T06:08:00.422016",
      "meanMotionRevPerDay": 15.02529833,
      "eccentricity": 0.00012947,
      "inclinationDeg": 43.0045,
      "raanDeg": 48.024,
      "argPerigeeDeg": 263.9917,
      "meanAnomalyDeg": 96.0778,
      "bstar": 0.000055859229,
      "meanMotionDot": 0.00000551,
      "meanMotionDdot": 0,
      "elementSetNo": 999,
      "revAtEpoch": 16750
    },
    {
      "objectName": "STARLINK-5475",
      "objectId": "2023-021AK",
      "noradId": 55661,
      "epochUtc": "2026-02-26T12:58:26.867136",
      "meanMotionRevPerDay": 14.98332245,
      "eccentricity": 0.0003271,
      "inclinationDeg": 69.9998,
      "raanDeg": 192.6013,
      "argPerigeeDeg": 272.0415,
      "meanAnomalyDeg": 88.037,
      "bstar": 0.000085389,
      "meanMotionDot": 0.00000926,
      "meanMotionDdot": 0,
      "elementSetNo": 999,
      "revAtEpoch": 16761
    },
    {
      "objectName": "STARLINK-5532",
      "objectId": "2023-028V",
      "noradId": 55760,
      "epochUtc": "2026-02-26T23:54:40.528224",
      "meanMotionRevPerDay": 14.98331525,
      "eccentricity": 0.00028479,
      "inclinationDeg": 69.9976,
      "raanDeg": 271.206,
      "argPerigeeDeg": 272.312,
      "meanAnomalyDeg": 87.7713,
      "bstar": 0.00010807299,
      "meanMotionDot": 0.00001197,
      "meanMotionDdot": 0,
      "elementSetNo": 999,
      "revAtEpoch": 16444
    },
    {
      "objectName": "STARLINK-5856",
      "objectId": "2023-037A",
      "noradId": 55914,
      "epochUtc": "2026-02-27T05:02:09.853728",
      "meanMotionRevPerDay": 14.98329484,
      "eccentricity": 0.00022664,
      "inclinationDeg": 70.0018,
      "raanDeg": 331.0342,
      "argPerigeeDeg": 266.0469,
      "meanAnomalyDeg": 94.0431,
      "bstar": 0.000074848748,
      "meanMotionDot": 0.000008,
      "meanMotionDdot": 0,
      "elementSetNo": 999,
      "revAtEpoch": 16260
    },
    {
      "objectName": "STARLINK-5851",
      "objectId": "2023-037AK",
      "noradId": 55947,
      "epochUtc": "2026-02-27T06:00:02.000160",
      "meanMotionRevPerDay": 15.31483034,
      "eccentricity": 0.0003012,
      "inclinationDeg": 70.0017,
      "raanDeg": 308.8101,
      "argPerigeeDeg": 273.7489,
      "meanAnomalyDeg": 174.799,
      "bstar": 0.027790886,
      "meanMotionDot": 0.00913368,
      "meanMotionDdot": 0,
      "elementSetNo": 999,
      "revAtEpoch": 571
    },
    {
      "objectName": "STARLINK-5944",
      "objectId": "2023-042R",
      "noradId": 56001,
      "epochUtc": "2026-02-27T04:39:55.130112",
      "meanMotionRevPerDay": 15.02538029,
      "eccentricity": 0.00012198,
      "inclinationDeg": 43.0037,
      "raanDeg": 112.9595,
      "argPerigeeDeg": 272.1393,
      "meanAnomalyDeg": 87.9309,
      "bstar": 0.000054074785,
      "meanMotionDot": 0.00000527,
      "meanMotionDdot": 0,
      "elementSetNo": 999,
      "revAtEpoch": 16133
    },
    {
      "objectName": "STARLINK-5785",
      "objectId": "2023-042AX",
      "noradId": 56031,
      "epochUtc": "2026-02-26T14:28:19.276896",
      "meanMotionRevPerDay": 15.02536746,
      "eccentricity": 0.0001581,
      "inclinationDeg": 43.0038,
      "raanDeg": 103.249,
      "argPerigeeDeg": 265.5498,
      "meanAnomalyDeg": 94.5164,
      "bstar": 0.000045688,
      "meanMotionDot": 0.00000414,
      "meanMotionDdot": 0,
      "elementSetNo": 999,
      "revAtEpoch": 16139
    },
    {
      "objectName": "STARLINK-6107",
      "objectId": "2023-046AA",
      "noradId": 56117,
      "epochUtc": "2026-02-26T11:37:40.972800",
      "meanMotionRevPerDay": 15.02532851,
      "eccentricity": 0.0001352,
      "inclinationDeg": 43.0034,
      "raanDeg": 207.1014,
      "argPerigeeDeg": 264.9855,
      "meanAnomalyDeg": 95.0833,
      "bstar": 0.000013762,
      "meanMotionDot": -1.8e-7,
      "meanMotionDdot": 0,
      "elementSetNo": 999,
      "revAtEpoch": 16052
    },
    {
      "objectName": "STARLINK-30095",
      "objectId": "2023-056D",
      "noradId": 56289,
      "epochUtc": "2026-02-27T06:00:02.000160",
      "meanMotionRevPerDay": 15.07002576,
      "eccentricity": 0.00019575,
      "inclinationDeg": 43.0004,
      "raanDeg": 240.9538,
      "argPerigeeDeg": 247.3568,
      "meanAnomalyDeg": 63.1404,
      "bstar": 0.0029707319,
      "meanMotionDot": 0.00045319,
      "meanMotionDdot": 0,
      "elementSetNo": 999,
      "revAtEpoch": 567
    }