STARLINK-5588           
1 55375U 23013AW  26058.25975048  .00000285  00000+0  36149-4 0  9996
2 55375  43.0035   9.7233 0001166 272.9855  87.0853 15.02541529169997
STARLINK-5060           
1 55413U 23014Y   26058.25313256  .00000676  00000+0  64393-4 0  9993
2 55413  70.0016 110.5871 0002796 231.7618 128.3290 14.98335120170008
STARLINK-5682           
1 55457U 23015J   26058.26949099  .00001201  00000+0  10398-3 0  9993
2 55457  43.0052  22.8612 0001352 269.6786  90.3901 15.02538340169186
STARLINK-5373           
1 55490U 23015AT  26058.24703114  .00000731  00000+0  69162-4 0  9995
2 55490  43.0037  35.6667 0001068 273.3852  86.6868 15.02541011169031
STARLINK-5697           
1 55589U 23020W   26058.27194582  .00000249  00000+0  33512-4 0  9990
2 55589  43.0034  61.1224 0001088 276.9861  83.0857 15.02536593167352
STARLINK-5698           
1 55623U 23020BG  26058.25556044  .00000551  00000+0  55859-4 0  9996
2 55623  43.0045  48.0240 0001294 263.9917  96.0778 15.02529833167504
STARLINK-5475           
1 55661U 23021AK  26057.54058874  .00000926  00000+0  85389-4 0  9995
2 55661  69.9998 192.6013 0003271 272.0415  88.0370 14.98332245167619
STARLINK-5532           
1 55760U 23028V   26057.99630241  .00001197  00000+0  10807-3 0  9998
2 55760  69.9976 271.2060 0002847 272.3120  87.7713 14.98331525164440
STARLINK-5856           
1 55914U 23037A   26058.20983627  .00000800  00000+0  74849-4 0  9990
2 55914  70.0018 331.0342 0002266 266.0469  94.0431 14.98329484162605
STARLINK-5851           
1 55947U 23037AK  26058.25002315  .00913368  00000+0  27791-1 0  9990
2 55947  70.0017 308.8101 0003012 273.7489 174.7990 15.31483034  5716
STARLINK-5944           
1 56001U 23042R   26058.19438808  .00000527  00000+0  54075-4 0  9993
2 56001  43.0037 112.9595 0001219 272.1393  87.9309 15.02538029161338
STARLINK-5785           
1 56031U 23042AX  26057.60300089  .00000414  00000+0  45688-4 0  9995
2 56031  43.0038 103.2490 0001581 265.5498  94.5164 15.02536746161396
STARLINK-6107           
1 56117U 23046AA  26057.48450200 -.00000018  00000+0  13762-4 0  9990
2 56117  43.0034 207.1014 0001352 264.9855  95.0833 15.02532851160525
STARLINK-30095          
1 56289U 23056D   26058.25002315  .00045319  00000+0  29707-2 0  9993
2 56289  43.0004 240.9538 0001957 247.3568  63.1404 15.07002576  5670
